{
  "type": "FeatureCollection",
  "features": [
    {
      "type": "Feature",
      "properties": {
        "norad_id": 33901,
        "name": "COSMOS 2251 DEB",
        "group": "cosmos-2251-debris",
        "lat": 43.7212826055187,
        "lon": 58.22142063200318,
        "alt_km": 526.0974869477204,
        "timestamp": "2025-12-16T03:53:27.448147+00:00",
        "meta_object_name": "COSMOS 2251 DEB",
        "meta_object_id": "1993-036DE",
        "meta_epoch": "2025-12-15T03:56:06.618336",
        "meta_mean_motion": 15.16246657,
        "meta_eccentricity": 0.0031134,
        "meta_inclination": 73.7745,
        "meta_ra_of_asc_node": 44.1636,
        "meta_arg_of_pericenter": 176.2844,
        "meta_mean_anomaly": 183.8588,
        "meta_ephemeris_type": 0,
        "meta_classification_type": "U",
        "meta_norad_cat_id": 33901,
        "meta_element_set_no": 999,
        "meta_rev_at_epoch": 89550,
        "meta_bstar": 0.001937563,
        "meta_mean_motion_dot": 0.00038107,
        "meta_mean_motion_ddot": 0,
        "tle_line1": "1 33901U 93036DE  25349.16396549  .00038107  00000+0  19376-2 0  9999",
        "tle_line2": "2 33901  73.7745  44.1636 0031134 176.2844 183.8588 15.16246657895500"
      },
      "geometry": {
        "type": "Point",
        "coordinates": [
          58.22142063200318,
          43.7212826055187
        ]
      }
    },
    {
      "type": "Feature",
      "properties": {
        "norad_id": 33905,
        "name": "COSMOS 2251 DEB",
        "group": "cosmos-2251-debris",
        "lat": -28.046273416307425,
        "lon": 139.16904622962946,
        "alt_km": 737.8235643252656,
        "timestamp": "2025-12-16T03:53:27.448157+00:00",
        "meta_object_name": "COSMOS 2251 DEB",
        "meta_object_id": "1993-036DJ",
        "meta_epoch": "2025-12-15T07:23:02.510880",
        "meta_mean_motion": 14.35396806,
        "meta_eccentricity": 0.0058708,
        "meta_inclination": 73.8869,
        "meta_ra_of_asc_node": 311.891,
        "meta_arg_of_pericenter": 200.8989,
        "meta_mean_anomaly": 274.5963,
        "meta_ephemeris_type": 0,
        "meta_classification_type": "U",
        "meta_norad_cat_id": 33905,
        "meta_element_set_no": 999,
        "meta_rev_at_epoch": 87724,
        "meta_bstar": 0.00055460842,
        "meta_mean_motion_dot": 1.597e-05,
        "meta_mean_motion_ddot": 0,
        "tle_line1": "1 33905U 93036DJ  25349.30766795  .00001597  00000+0  55461-3 0  9992",
        "tle_line2": "2 33905  73.8869 311.8910 0058708 200.8989 274.5963 14.35396806877249"
      },
      "geometry": {
        "type": "Point",
        "coordinates": [
          139.16904622962946,
          -28.046273416307425
        ]
      }
    },
    {
      "type": "Feature",
      "properties": {
        "norad_id": 33906,
        "name": "COSMOS 2251 DEB",
        "group": "cosmos-2251-debris",
        "lat": 1.301493020003744,
        "lon": -44.65625144497954,
        "alt_km": 680.0549051888465,
        "timestamp": "2025-12-16T03:53:27.448168+00:00",
        "meta_object_name": "COSMOS 2251 DEB",
        "meta_object_id": "1993-036DK",
        "meta_epoch": "2025-12-15T08:48:30.542688",
        "meta_mean_motion": 14.57142382,
        "meta_eccentricity": 0.00367351,
        "meta_inclination": 74.0301,
        "meta_ra_of_asc_node": 316.4812,
        "meta_arg_of_pericenter": 345.5133,
        "meta_mean_anomaly": 166.6431,
        "meta_ephemeris_type": 0,
        "meta_classification_type": "U",
        "meta_norad_cat_id": 33906,
        "meta_element_set_no": 999,
        "meta_rev_at_epoch": 88046,
        "meta_bstar": 0.0013274332,
        "meta_mean_motion_dot": 6.017e-05,
        "meta_mean_motion_ddot": 0,
        "tle_line1": "1 33906U 93036DK  25349.36702017  .00006017  00000+0  13274-2 0  9993",
        "tle_line2": "2 33906  74.0301 316.4812 0036735 345.5133 166.6431 14.57142382880461"
      },
      "geometry": {
        "type": "Point",
        "coordinates": [
          -44.65625144497954,
          1.301493020003744
        ]
      }
    },
    {
      "type": "Feature",
      "properties": {
        "norad_id": 33907,
        "name": "COSMOS 2251 DEB",
        "group": "cosmos-2251-debris",
        "lat": 4.930721731479155,
        "lon": 28.84863577875376,
        "alt_km": 772.5760200583945,
        "timestamp": "2025-12-16T03:53:27.448178+00:00",
        "meta_object_name": "COSMOS 2251 DEB",
        "meta_object_id": "1993-036DL",
        "meta_epoch": "2025-12-15T02:50:05.464320",
        "meta_mean_motion": 14.30529257,
        "meta_eccentricity": 0.01120215,
        "meta_inclination": 74.0706,
        "meta_ra_of_asc_node": 29.3321,
        "meta_arg_of_pericenter": 84.1107,
        "meta_mean_anomaly": 308.0001,
        "meta_ephemeris_type": 0,
        "meta_classification_type": "U",
        "meta_norad_cat_id": 33907,
        "meta_element_set_no": 999,
        "meta_rev_at_epoch": 86614,
        "meta_bstar": 0.0010283551,
        "meta_mean_motion_dot": 2.846e-05,
        "meta_mean_motion_ddot": 0,
        "tle_line1": "1 33907U 93036DL  25349.11811880  .00002846  00000+0  10284-2 0  9990",
        "tle_line2": "2 33907  74.0706  29.3321 0112021  84.1107 308.0001 14.30529257866141"
      },
      "geometry": {
        "type": "Point",
        "coordinates": [
          28.84863577875376,
          4.930721731479155
        ]
      }
    },
    {
      "type": "Feature",
      "properties": {
        "norad_id": 33908,
        "name": "COSMOS 2251 DEB",
        "group": "cosmos-2251-debris",
        "lat": 65.30968776732405,
        "lon": -19.412984491820097,
        "alt_km": 923.5698915986177,
        "timestamp": "2025-12-16T03:53:27.448188+00:00",
        "meta_object_name": "COSMOS 2251 DEB",
        "meta_object_id": "1993-036DM",
        "meta_epoch": "2025-12-15T00:03:36.552960",
        "meta_mean_motion": 14.07360241,
        "meta_eccentricity": 0.02229189,
        "meta_inclination": 73.838,
        "meta_ra_of_asc_node": 201.7505,
        "meta_arg_of_pericenter": 224.8552,
        "meta_mean_anomaly": 133.4381,
        "meta_ephemeris_type": 0,
        "meta_classification_type": "U",
        "meta_norad_cat_id": 33908,
        "meta_element_set_no": 999,
        "meta_rev_at_epoch": 85505,
        "meta_bstar": 0.0014193738,
        "meta_mean_motion_dot": 2.966e-05,
        "meta_mean_motion_ddot": 0,
        "tle_line1": "1 33908U 93036DM  25349.00250640  .00002966  00000+0  14194-2 0  9997",
        "tle_line2": "2 33908  73.8380 201.7505 0222918 224.8552 133.4381 14.07360241855050"
      },
      "geometry": {
        "type": "Point",
        "coordinates": [
          -19.412984491820097,
          65.30968776732405
        ]
      }
    },
    {
      "type": "Feature",
      "properties": {
        "norad_id": 33911,
        "name": "COSMOS 2251 DEB",
        "group": "cosmos-2251-debris",
        "lat": -8.41386927085091,
        "lon": 152.77090057000225,
        "alt_km": 651.1112245987078,
        "timestamp": "2025-12-16T03:53:27.448198+00:00",
        "meta_object_name": "COSMOS 2251 DEB",
        "meta_object_id": "1993-036DQ",
        "meta_epoch": "2025-12-14T21:34:48.871200",
        "meta_mean_motion": 14.74914651,
        "meta_eccentricity": 0.00141309,
        "meta_inclination": 74.0901,
        "meta_ra_of_asc_node": 157.6475,
        "meta_arg_of_pericenter": 96.3112,
        "meta_mean_anomaly": 32.1081,
        "meta_ephemeris_type": 0,
        "meta_classification_type": "U",
        "meta_norad_cat_id": 33911,
        "meta_element_set_no": 999,
        "meta_rev_at_epoch": 88676,
        "meta_bstar": 0.0013685388,
        "meta_mean_motion_dot": 9.184e-05,
        "meta_mean_motion_ddot": 0,
        "tle_line1": "1 33911U 93036DQ  25348.89917675  .00009184  00000+0  13685-2 0  9998",
        "tle_line2": "2 33911  74.0901 157.6475 0014130  96.3112  32.1081 14.74914651886768"
      },
      "geometry": {
        "type": "Point",
        "coordinates": [
          152.77090057000225,
          -8.41386927085091
        ]
      }
    },
    {
      "type": "Feature",
      "properties": {
        "norad_id": 33912,
        "name": "COSMOS 2251 DEB",
        "group": "cosmos-2251-debris",
        "lat": -42.53497990175037,
        "lon": 168.05016813781702,
        "alt_km": 720.8377598067045,
        "timestamp": "2025-12-16T03:53:27.448208+00:00",
        "meta_object_name": "COSMOS 2251 DEB",
        "meta_object_id": "1993-036DR",
        "meta_epoch": "2025-12-15T07:25:34.697568",
        "meta_mean_motion": 14.51910513,
        "meta_eccentricity": 0.00114109,
        "meta_inclination": 74.0334,
        "meta_ra_of_asc_node": 184.8844,
        "meta_arg_of_pericenter": 263.8562,
        "meta_mean_anomaly": 276.329,
        "meta_ephemeris_type": 0,
        "meta_classification_type": "U",
        "meta_norad_cat_id": 33912,
        "meta_element_set_no": 999,
        "meta_rev_at_epoch": 88470,
        "meta_bstar": 0.00054791249,
        "meta_mean_motion_dot": 2.184e-05,
        "meta_mean_motion_ddot": 0,
        "tle_line1": "1 33912U 93036DR  25349.30942937  .00002184  00000+0  54791-3 0  9992",
        "tle_line2": "2 33912  74.0334 184.8844 0011410 263.8562 276.3290 14.51910513884703"
      },
      "geometry": {
        "type": "Point",
        "coordinates": [
          168.05016813781702,
          -42.53497990175037
        ]
      }
    }
  ]
}